NORAD_CAT_ID,OBJECT_NAME,OBJECT_TYPE,EPOCH,MEAN_MOTION,ECCENTRICITY,INCLINATION,RA_OF_ASC_NODE,ARG_OF_PERICENTER,MEAN_ANOMALY,BSTAR,MEAN_MOTION_DOT,MEAN_MOTION_DDOT,TLE_LINE0,TLE_LINE1,TLE_LINE2,SEMIMAJOR_AXIS,PERIOD,APOGEE,PERIGEE,DECAYED
54184.0,STARLINK-5162,PAYLOAD,2023-01-27 11:37:31,15.08834772,0.000159,53.22,68.8503,91.8619,268.2555,2.239e-05,6.8e-07,0.0,0 STARLINK-5162,1 54184U 22141AD  23027.48439750  .00000068  00000-0  22390-4 0  9990,2 54184  53.2200  68.8503 0001590  91.8619 268.2555 15.08834772 14187,6917.896,95.438,540.861,538.661,0.0
54184.0,STARLINK-5162,PAYLOAD,2023-01-27 19:34:27,15.08833239,0.0001547,53.2192,67.3625,88.7663,271.3506,-3.2976e-05,-8.13e-06,0.0,0 STARLINK-5162,1 54184U 22141AD  23027.81560075 -.00000813  00000-0 -32976-4 0  9993,2 54184  53.2192  67.3625 0001547  88.7663 271.3506 15.08833239 14461,6917.901,95.438,540.836,538.696,0.0
54184.0,STARLINK-5162,PAYLOAD,2023-01-28 11:28:18,15.08843178,0.0001375,53.2184,64.3874,95.4213,264.6936,-4.1402e-05,-9.47e-06,0.0,0 STARLINK-5162,1 54184U 22141AD  23028.47799489 -.00000947  00000-0 -41402-4 0  9991,2 54184  53.2184  64.3874 0001375  95.4213 264.6936 15.08843178 14566,6917.871,95.437,540.687,538.784,0.0
54184.0,STARLINK-5162,PAYLOAD,2023-01-28 19:25:14,15.08842721,0.0001325,53.2178,62.9005,86.559,273.5554,-9.4342e-05,-1.789e-05,0.0,0 STARLINK-5162,1 54184U 22141AD  23028.80919672 -.00001789  00000-0 -94342-4 0  9992,2 54184  53.2178  62.9005 0001325  86.5590 273.5554 15.08842721 14381,6917.872,95.437,540.654,538.82,0.0
54184.0,STARLINK-5162,PAYLOAD,2023-01-29 01:46:47,15.08828809,0.0001314,53.2177,61.7108,84.1131,276.0011,6.9843e-05,8.24e-06,0.0,0 STARLINK-5162,1 54184U 22141AD  23029.07415992  .00000824  00000-0  69843-4 0  9993,2 54184  53.2177  61.7108 0001314  84.1131 276.0011 15.08828809 14651,6917.915,95.438,540.689,538.871,0.0
54184.0,STARLINK-5162,PAYLOAD,2023-01-29 11:19:05,15.08841326,0.0001424,53.2178,59.9268,86.7157,273.3998,2.7496e-05,1.5e-06,0.0,0 STARLINK-5162,1 54184U 22141AD  23029.47159467  .00000150  00000-0  27496-4 0  9999,2 54184  53.2178  59.9268 0001424  86.7157 273.3998 15.08841326 14716,6917.876,95.437,540.726,538.756,0.0
54184.0,STARLINK-5162,PAYLOAD,2023-01-29 19:16:01,15.08841331,0.0001403,53.2181,58.4405,86.1363,273.979,1.9312e-05,1.9e-07,0.0,0 STARLINK-5162,1 54184U 22141AD  23029.80279462  .00000019  00000-0  19312-4 0  9996,2 54184  53.2181  58.4405 0001403  86.1363 273.9790 15.08841331 14539,6917.876,95.437,540.712,538.771,0.0
54184.0,STARLINK-5162,PAYLOAD,2023-01-30 07:59:05,15.08897869,0.0001228,53.2179,56.0623,82.5971,277.516,-0.00068308,-0.0001116,0.0,0 STARLINK-5162,1 54184U 22141AD  23030.33270481 -.00011160  00000-0 -68308-3 0  9997,2 54184  53.2179  56.0623 0001228  82.5971 277.5160 15.08897869 14844,6917.704,95.434,540.418,538.719,0.0
54184.0,STARLINK-5162,PAYLOAD,2023-01-30 19:06:48,15.08841417,0.0001509,53.218,53.9812,81.3518,278.7645,4.0803e-05,3.61e-06,0.0,0 STARLINK-5162,1 54184U 22141AD  23030.79639430  .00000361  00000-0  40803-4 0  9990,2 54184  53.2180  53.9812 0001509  81.3518 278.7645 15.08841417 14915,6917.876,95.437,540.785,538.697,0.0
54184.0,STARLINK-5162,PAYLOAD,2023-01-30 23:52:58,15.08838615,0.0001523,53.2178,53.0895,81.1076,279.0089,3.7029e-05,3.01e-06,0.0,0 STARLINK-5162,1 54184U 22141AD  23030.99511603  .00000301  00000-0  37029-4 0  9993,2 54184  53.2178  53.0895 0001523  81.1076 279.0089 15.08838615 14717,6917.885,95.438,540.803,538.696,0.0
54184.0,STARLINK-5162,PAYLOAD,2023-02-01 01:19:08,15.08835495,0.0001274,53.2166,48.3291,101.3891,258.7244,4.8215e-05,4.79e-06,0.0,0 STARLINK-5162,1 54184U 22141AD  23032.05495493  .00000479  00000-0  48215-4 0  9995,2 54184  53.2166  48.3291 0001274 101.3891 258.7244 15.08835495 15108,6917.894,95.438,540.64,538.878,0.0
54184.0,STARLINK-5162,PAYLOAD,2023-02-01 06:05:17,15.0884118,0.0001315,53.2168,47.4374,95.0528,265.0614,-3.8005e-06,-3.48e-06,0.0,0 STARLINK-5162,1 54184U 22141AD  23032.25367361 -.00000348  00000-0 -38005-5 0  9993,2 54184  53.2168  47.4374 0001315  95.0528 265.0614 15.08841180 14901,6917.877,95.437,540.651,538.832,0.0
54184.0,STARLINK-5162,PAYLOAD,2023-02-02 07:31:28,15.0883329,0.0001231,53.2188,42.6819,102.288,257.825,-3.1494e-05,-7.89e-06,0.0,0 STARLINK-5162,1 54184U 22141AD  23033.31352187 -.00000789  00000-0 -31494-4 0  9994,2 54184  53.2188  42.6819 0001231 102.2880 257.8250 15.08833290 15069,6917.901,95.438,540.617,538.914,0.0
54184.0,STARLINK-5162,PAYLOAD,2023-02-02 23:25:20,15.08803077,0.0001342,53.2182,39.7079,108.7754,251.3384,0.00023213,3.405e-05,0.0,0 STARLINK-5162,1 54184U 22141AD  23033.97593161  .00003405  00000-0  23213-3 0  9990,2 54184  53.2182  39.7079 0001342 108.7754 251.3384 15.08803077 15395,6917.993,95.44,540.787,538.93,0.0
54184.0,STARLINK-5162,PAYLOAD,2023-02-03 05:46:53,15.08815579,0.0001264,53.2179,38.5137,96.8388,263.2748,0.0001642,2.325e-05,0.0,0 STARLINK-5162,1 54184U 22141AD  23034.24089130  .00002325  00000-0  16420-3 0  9999,2 54184  53.2179  38.5137 0001264  96.8388 263.2748 15.08815579 15437,6917.955,95.439,540.694,538.946,0.0
54184.0,STARLINK-5162,PAYLOAD,2023-02-04 10:23:47,15.08849217,0.0001235,53.218,33.1627,113.743,246.3692,0.00013261,1.824e-05,0.0,0 STARLINK-5162,1 54184U 22141AD  23035.43319269  .00001824  00000-0  13261-3 0  9993,2 54184  53.2180  33.1627 0001235 113.7430 246.3692 15.08849217 15615,6917.852,95.437,540.572,538.863,0.0
54184.0,STARLINK-5162,PAYLOAD,2023-02-04 23:06:54,15.08831954,8.84e-05,53.2184,30.7795,101.568,258.5412,5.2965e-07,-2.79e-06,0.0,0 STARLINK-5162,1 54184U 22141AD  23035.96312973 -.00000279  00000-0  52965-6 0  9997,2 54184  53.2184  30.7795 0000884 101.5680 258.5412 15.08831954 15691,6917.905,95.438,540.382,539.158,0.0
54184.0,STARLINK-5162,PAYLOAD,2023-02-05 08:39:12,15.08838597,0.0001293,53.2173,28.9988,92.5321,267.5819,5.6958e-05,6.19e-06,0.0,0 STARLINK-5162,1 54184U 22141AD  23036.36056484  .00000619  00000-0  56958-4 0  9995,2 54184  53.2173  28.9988 0001293  92.5321 267.5819 15.08838597 15756,6917.885,95.438,540.644,538.855,0.0
54184.0,STARLINK-5162,PAYLOAD,2023-02-05 22:57:40,15.08847845,0.0001287,53.218,26.3247,93.357,266.7569,-7.8107e-05,-1.531e-05,0.0,0 STARLINK-5162,1 54184U 22141AD  23036.95672448 -.00001531  00000-0 -78107-4 0  9990,2 54184  53.2180  26.3247 0001287  93.3570 266.7569 15.08847845 15616,6917.856,95.437,540.612,538.831,0.0
54184.0,STARLINK-5162,PAYLOAD,2023-02-06 08:29:58,15.08856382,0.0001281,53.218,24.5409,95.3224,264.7914,-3.12e-06,-3.38e-06,0.0,0 STARLINK-5162,1 54184U 22141AD  23037.35415314 -.00000338  00000-0 -31200-5 0  9990,2 54184  53.2180  24.5409 0001281  95.3224 264.7914 15.08856382 15908,6917.83,95.437,540.581,538.809,0.0
54184.0,STARLINK-5162,PAYLOAD,2023-02-07 03:34:37,15.08840582,0.0001711,53.219,20.9746,83.1283,276.9903,6.0428e-05,6.74e-06,0.0,0 STARLINK-5162,1 54184U 22141AD  23038.14904069  .00000674  00000-0  60428-4 0  9992,2 54184  53.2190  20.9746 0001711  83.1283 276.9903 15.08840582 16023,6917.879,95.438,540.927,538.56,0.0
54184.0,STARLINK-5162,PAYLOAD,2023-02-07 05:09:59,15.08846327,0.0001435,53.2179,20.6747,89.629,270.4867,5.0968e-05,5.23e-06,0.0,0 STARLINK-5162,1 54184U 22141AD  23038.21527589  .00000523  00000-0  50968-4 0  9999,2 54184  53.2179  20.6747 0001435  89.6290 270.4867 15.08846327 15806,6917.861,95.437,540.719,538.733,0.0
54184.0,STARLINK-5162,PAYLOAD,2023-02-08 09:46:54,15.08860484,0.0001216,53.2189,15.3216,94.5559,265.5572,6.9806e-05,8.24e-06,0.0,0 STARLINK-5162,1 54184U 22141AD  23039.40758080  .00000824  00000-0  69806-4 0  9998,2 54184  53.2189  15.3216 0001216  94.5559 265.5572 15.08860484 16213,6917.818,95.436,540.524,538.842,0.0
54184.0,STARLINK-5162,PAYLOAD,2023-02-09 03:16:12,15.08830515,0.0001497,53.2195,12.0515,69.462,290.6533,-0.00013872,-2.494e-05,0.0,0 STARLINK-5162,1 54184U 22141AD  23040.13625140 -.00002494  00000-0 -13872-3 0  9998,2 54184  53.2195  12.0515 0001497  69.4620 290.6533 15.08830515 16327,6917.909,95.438,540.81,538.739,0.0
54184.0,STARLINK-5162,PAYLOAD,2023-02-09 08:02:20,15.08846667,0.000124,53.2186,11.1588,80.4184,279.6948,2.9126e-06,-2.42e-06,0.0,0 STARLINK-5162,1 54184U 22141AD  23040.33495640 -.00000242  00000-0  29126-5 0  9999,2 54184  53.2186  11.1588 0001240  80.4184 279.6948 15.08846667 16121,6917.86,95.437,540.583,538.867,0.0
54184.0,STARLINK-5162,PAYLOAD,2023-02-10 04:42:20,15.08852326,0.0001071,53.2186,7.2947,93.6729,266.4385,0.00010233,1.342e-05,0.0,0 STARLINK-5162,1 54184U 22141AD  23041.19607301  .00001342  00000-0  10233-3 0  9991,2 54184  53.2186   7.2947 0001071  93.6729 266.4385 15.08852326 16251,6917.843,95.437,540.449,538.967,0.0
54184.0,STARLINK-5162,PAYLOAD,2023-02-10 23:46:59,15.08839237,0.0001139,53.2196,3.7276,88.4099,271.7024,3.2162e-05,2.24e-06,0.0,0 STARLINK-5162,1 54184U 22141AD  23041.99096503  .00000224  00000-0  32162-4 0  9999,2 54184  53.2196   3.7276 0001139  88.4099 271.7024 15.08839237 16609,6917.883,95.438,540.536,538.96,0.0
54184.0,STARLINK-5162,PAYLOAD,2023-02-11 04:33:07,15.0885916,8.91e-05,53.2181,2.8329,92.2389,267.8705,0.00015532,2.186e-05,0.0,0 STARLINK-5162,1 54184U 22141AD  23042.18966778  .00002186  00000-0  15532-3 0  9991,2 54184  53.2181   2.8329 0000891  92.2389 267.8705 15.08859160 16633,6917.822,95.436,540.303,539.07,0.0
54184.0,STARLINK-5162,PAYLOAD,2023-02-11 22:02:23,15.08845912,7.58e-05,53.2183,359.5625,89.9889,270.119,-9.7111e-05,-1.833e-05,0.0,0 STARLINK-5162,1 54184U 22141AD  23042.91832648 -.00001833  00000-0 -97111-4 0  9994,2 54184  53.2183 359.5625 0000758  89.9889 270.1190 15.08845912 16518,6917.862,95.437,540.252,539.203,0.0
54184.0,STARLINK-5162,PAYLOAD,2023-02-12 13:56:14,15.08856152,0.0001454,53.2212,356.5887,72.8127,287.3025,-0.00026631,-4.526e-05,0.0,0 STARLINK-5162,1 54184U 22141AD  23043.58072352 -.00004526  00000-0 -26631-3 0  9996,2 54184  53.2212 356.5887 0001454  72.8127 287.3025 15.08856152 16614,6917.831,95.437,540.702,538.69,0.0
